STARLINK-31471          
1 59568U 24076E   26068.16231798 -.00001762  00000+0 -54536-4 0  9995
2 59568  43.0065  11.8378 0001016 285.9523  74.1216 15.27566798106333
2025-313BC              
1 67298U 25313BC  26068.18968176  .00075331  00000+0  26410-2 0  9997
2 67298  97.3985 144.8110 0008478 328.9209  31.1528 15.29126358  7890
